QIANFAN-60              
1 62790U 25016F   26025.84799971  .00000137  00000+0  19425-3 0  9991
2 62790  88.9734  98.5150 0015294 208.9398 151.0906 13.50987427 53188
QIANFAN-61              
1 62791U 25016G   26025.80689648  .00000111  00000+0  15392-3 0  9998
2 62791  88.9802  98.7122 0014237 207.9340 152.1049 13.50988709 53193
QIANFAN-62              
1 62792U 25016H   26025.81101372  .00000132  00000+0  18620-3 0  9993
2 62792  88.9748  98.5564 0015603 208.9518 151.0769 13.50991411 53187
QIANFAN-63              
1 62793U 25016J   26025.83568717  .00000133  00000+0  18808-3 0  9995
2 62793  88.9755  98.5083 0015486 214.4274 145.5875 13.50989657 53222
QIANFAN-64              
1 62794U 25016K   26025.80277060  .00000120  00000+0  16663-3 0  9994
2 62794  88.9742  98.4799 0013666 206.2112 153.8349 13.50988096 53213
QIANFAN-65              
1 62795U 25016L   26025.79871542  .00000114  00000+0  15844-3 0  9991
2 62795  88.9738  98.5048 0013459 207.8829 152.1602 13.50986795 53194
QIANFAN-66              
1 62796U 25016M   26025.82745353  .00000142  00000+0  20057-3 0  9999
2 62796  88.9758  98.4806 0014717 203.9266 156.1202 13.50991706 53242
QIANFAN-67              
1 62797U 25016N   26025.83156237  .00000123  00000+0  17260-3 0  9999
2 62797  88.9748  98.5014 0014447 210.9506 149.0795 13.50995912 53217
QIANFAN-68              
1 62798U 25016P   26025.82336089  .00000141  00000+0  19973-3 0  9997
2 62798  88.9751  98.5490 0014564 209.1672 150.8667 13.50987880 53194
QIANFAN-69              
1 62799U 25016Q   26025.83980859  .00000136  00000+0  19258-3 0  9999
2 62799  88.9730  98.4073 0015259 210.6350 149.3912 13.50988203 53231
QIANFAN-70              
1 62800U 25016R   26025.78224964  .00000146  00000+0  20809-3 0  9999
2 62800  88.9751  98.5610 0015189 200.8271 159.2263 13.50992004 53187
QIANFAN-71              
1 62801U 25016S   26025.85212109  .00000152  00000+0  21675-3 0  9995
2 62801  88.9745  98.5306 0015060 214.2083 145.8099 13.50991360 53194
QIANFAN-72              
1 62802U 25016T   26025.79450567  .00000119  00000+0  16604-3 0  9990
2 62802  88.9736  98.5457 0018065 223.1223 136.8514 13.50991241 53173
QIANFAN-73              
1 63159U 25046A   26025.82161822  .00000284  00000+0  42159-3 0  9993
2 63159  88.9796 315.4684 0015630   3.5776 356.5484 13.50994510 53366
QIANFAN-74              
1 63160U 25046B   26025.80511793  .00000276  00000+0  40902-3 0  9994
2 63160  88.9795 315.3590 0001824  68.9543 291.1803 13.50991867 53427
QIANFAN-75              
1 63161U 25046C   26025.79225846  .00000266  00000+0  39359-3 0  9997
2 63161  88.9797 315.5945 0016942   6.0114 354.1238 13.50990482 53299
QIANFAN-76              
1 63162U 25046D   26025.78887830  .00000290  00000+0  43054-3 0  9998
2 63162  88.9796 315.5752 0014526   7.6406 352.4964 13.50997487 53303
QIANFAN-77              
1 63163U 25046E   26025.76400792  .00000682  00000+0  48696-3 0  9997
2 63163  88.9795 313.2239 0013588 310.6216  49.3778 13.96137924 54590
QIANFAN-78              
1 63164U 25046F   26025.75573259  .00000293  00000+0  43485-3 0  9995
2 63164  88.9795 315.4422 0015959   9.2162 350.9279 13.50996487 53373
QIANFAN-79              
1 63165U 25046G   26025.78440525  .00000288  00000+0  42695-3 0  9994
2 63165  88.9799 315.5485 0015621   7.6485 352.4902 13.50993592 53323
QIANFAN-80              
1 63166U 25046H   26025.80092336  .00000283  00000+0  42015-3 0  9992
2 63166  88.9796 315.2525 0014694  11.9934 348.1564 13.50996328 53482
QIANFAN-81              
1 63167U 25046J   26025.77853215  .00000171  00000+0  24582-3 0  9995
2 63167  88.9797 315.3225 0015395   1.5997 358.5200 13.50968065 53439
QIANFAN-82              
1 63168U 25046K   26025.81339976  .00000282  00000+0  41875-3 0  9991
2 63168  88.9796 315.3631 0013747   8.9863 351.1531 13.50995463 53429
QIANFAN-83              
1 63169U 25046L   26025.77868984  .00000344  00000+0  43118-3 0  9994
2 63169  88.9797 315.0567 0014440 352.3516   7.7419 13.61999397 53597
QIANFAN-84              
1 63170U 25046M   26025.76680351  .00000276  00000+0  40898-3 0  9991
2 63170  88.9796 315.5003 0016593   4.4428 355.6868 13.51004769 53341
QIANFAN-85              
1 63171U 25046N   26025.76389809  .00000265  00000+0  39183-3 0  9999
2 63171  88.9796 315.3723 0014084   7.8321 352.3047 13.50994154 53417
QIANFAN-86              
1 63172U 25046P   26025.77221206  .00000282  00000+0  41751-3 0  9990
2 63172  88.9798 315.2346 0012104  13.0533 347.0929 13.50996118 53495
QIANFAN-87              
1 63173U 25046Q   26025.81767784  .00000286  00000+0  42425-3 0  9995
2 63173  88.9794 315.3399 0012594   8.1692 351.9661 13.50993676 53432
QIANFAN-88              
1 63174U 25046R   26025.75975522  .00000251  00000+0  37065-3 0  9996
2 63174  88.9797 315.3014 0013252  15.6551 344.5007 13.50988197 53455
QIANFAN-89              
1 63175U 25046S   26025.79677318  .00000293  00000+0  43486-3 0  9993
2 63175  88.9797 315.4867 0017323   4.9164 355.2154 13.50965528 53351
QIANFAN-90              
1 63176U 25046T   26025.75145159  .00000276  00000+0  40929-3 0  9993
2 63176  88.9797 315.4638 0014207   4.8397 355.2888 13.50966825 53369
QIANFAN-91              
1 66033U 25233A   26025.78416413  .00000059  00000+0  73031-4 0  9993
2 66033  88.9913  57.6204 0001857  89.4646 270.6718 13.50991120 13950
QIANFAN-92              
1 66034U 25233B   26025.79239524  .00000158  00000+0  22675-3 0  9998
2 66034  88.9895  57.6150 0002118 105.8576 254.2809 13.50989410 13954
QIANFAN-93              
1 66035U 25233C   26025.80061970  .00000060  00000+0  73940-4 0  9993
2 66035  88.9923  57.6271 0001920  89.4337 270.7035 13.50993914 13951
QIANFAN-94              
1 66036U 25233D   26024.45681918  .00000129  00000+0  16626-3 0  9997
2 66036  88.9925  57.6724 0014204 266.5713  93.3816 13.56504062 13822
QIANFAN-95              
1 66037U 25233E   26025.78524536  .00000007  00000+0 -56504-5 0  9994
2 66037  88.9916  57.1513 0011374 257.2747 102.7153 13.86576693 14218
QIANFAN-96              
1 66038U 25233F   26025.82119184  .00000057  00000+0  69308-4 0  9998
2 66038  88.9915  57.6274 0001800  88.7274 271.4084 13.50991545 13957
QIANFAN-97              
1 66039U 25233G   26025.80474807  .00000046  00000+0  52931-4 0  9995
2 66039  88.9918  57.6084 0001877  89.9207 270.2159 13.50992836 13968
QIANFAN-98              
1 66040U 25233H   26025.70091637  .00000108  00000+0  11387-3 0  9990
2 66040  88.9896  57.3769 0014099 260.2620  99.6949 13.67277987 14080
QIANFAN-99              
1 66041U 25233J   26025.81708240  .00000057  00000+0  69733-4 0  9990
2 66041  88.9919  57.6102 0001880 102.4300 257.7062 13.50992720 13967
QIANFAN-100             
1 66042U 25233K   26025.80884789  .00000053  00000+0  64131-4 0  9996
2 66042  88.9930  57.5222 0001909  89.5395 270.5975 13.50994021 14013
QIANFAN-101             
1 66043U 25233L   26025.85263957  .00000367  00000+0  14589-3 0  9999
2 66043  88.9919  56.9381 0012708 246.9878 112.9975 14.26701554 14339
QIANFAN-102             
1 66044U 25233M   26025.78607211  .00000055  00000+0  60028-4 0  9991
2 66044  88.9916  57.5338 0012977 268.4070  91.5598 13.57813107 14005
QIANFAN-103             
1 66045U 25233N   26025.83345563  .00000043  00000+0  47414-4 0  9998
2 66045  88.9920  57.6127 0001913  89.0800 271.0570 13.50987641 13961
QIANFAN-104             
1 66046U 25233P   26022.89934271 -.02108639  00000+0 -31683+1 0  9993
2 66046  88.9924  57.8174 0014249 269.5626  90.3895 13.57154121 13628
QIANFAN-105             
1 66047U 25233Q   26021.71016019  .00000167  00000+0  15207-3 0  9995
2 66047  88.9943  57.7828 0014222 267.1530  92.8009 13.78552380 13541
QIANFAN-106             
1 66048U 25233R   26025.84177889  .00000013  00000+0  17506-5 0  9993
2 66048  88.9906  57.5893 0001970 103.8769 256.2601 13.50993259 13972
QIANFAN-107             
1 66049U 25233S   26025.84996416  .00000053  00000+0  62992-4 0  9991
2 66049  88.9922  57.5984 0001925  90.1289 270.0082 13.50990649 13974
QIANFAN-108             
1 66050U 25233T   26025.41088296 -.02116954  00000+0 -37777+1 0  9995
2 66050  88.9890  57.6533 0006027 316.2907  43.7763 13.46231909 13915
